{
  "type": "FeatureCollection",
  "features": [
    {
      "type": "Feature",
      "properties": {
        "norad_id": 33972,
        "name": "COSMOS 2251 DEB",
        "group": "cosmos-2251-debris",
        "lat": 57.88075234067534,
        "lon": -143.0440306211304,
        "alt_km": 726.1561746314974,
        "timestamp": "2025-12-13T05:42:57.965310+00:00",
        "meta_object_name": "COSMOS 2251 DEB",
        "meta_object_id": "1993-036FF",
        "meta_epoch": "2025-12-12T06:35:09.178656",
        "meta_mean_motion": 14.36217794,
        "meta_eccentricity": 0.01232772,
        "meta_inclination": 73.9943,
        "meta_ra_of_asc_node": 191.5212,
        "meta_arg_of_pericenter": 359.3812,
        "meta_mean_anomaly": 120.1551,
        "meta_ephemeris_type": 0,
        "meta_classification_type": "U",
        "meta_norad_cat_id": 33972,
        "meta_element_set_no": 999,
        "meta_rev_at_epoch": 87067,
        "meta_bstar": 0.0017624783,
        "meta_mean_motion_dot": 5.586e-05,
        "meta_mean_motion_ddot": 0,
        "tle_line1": "1 33972U 93036FF  25346.27441179  .00005586  00000+0  17625-2 0  9996",
        "tle_line2": "2 33972  73.9943 191.5212 0123277 359.3812 120.1551 14.36217794870672"
      },
      "geometry": {
        "type": "Point",
        "coordinates": [
          -143.0440306211304,
          57.88075234067534
        ]
      }
    },
    {
      "type": "Feature",
      "properties": {
        "norad_id": 33973,
        "name": "COSMOS 2251 DEB",
        "group": "cosmos-2251-debris",
        "lat": -7.023350964869704,
        "lon": -76.01202030320455,
        "alt_km": 745.8347683694537,
        "timestamp": "2025-12-13T05:42:57.965321+00:00",
        "meta_object_name": "COSMOS 2251 DEB",
        "meta_object_id": "1993-036FG",
        "meta_epoch": "2025-12-11T14:44:00.446784",
        "meta_mean_motion": 14.45388996,
        "meta_eccentricity": 0.004731,
        "meta_inclination": 74.0082,
        "meta_ra_of_asc_node": 104.9948,
        "meta_arg_of_pericenter": 283.6155,
        "meta_mean_anomaly": 95.7681,
        "meta_ephemeris_type": 0,
        "meta_classification_type": "U",
        "meta_norad_cat_id": 33973,
        "meta_element_set_no": 999,
        "meta_rev_at_epoch": 88584,
        "meta_bstar": 0.00025205547,
        "meta_mean_motion_dot": 8.71e-06,
        "meta_mean_motion_ddot": 0,
        "tle_line1": "1 33973U 93036FG  25345.61389406  .00000871  00000+0  25206-3 0  9995",
        "tle_line2": "2 33973  74.0082 104.9948 0047310 283.6155  95.7681 14.45388996885844"
      },
      "geometry": {
        "type": "Point",
        "coordinates": [
          -76.01202030320455,
          -7.023350964869704
        ]
      }
    },
    {
      "type": "Feature",
      "properties": {
        "norad_id": 33975,
        "name": "COSMOS 2251 DEB",
        "group": "cosmos-2251-debris",
        "lat": 45.524594673862886,
        "lon": 100.79766076874348,
        "alt_km": 1023.7423237274033,
        "timestamp": "2025-12-13T05:42:57.965332+00:00",
        "meta_object_name": "COSMOS 2251 DEB",
        "meta_object_id": "1993-036FJ",
        "meta_epoch": "2025-12-11T08:54:25.516224",
        "meta_mean_motion": 14.00521461,
        "meta_eccentricity": 0.0191329,
        "meta_inclination": 73.8024,
        "meta_ra_of_asc_node": 86.8585,
        "meta_arg_of_pericenter": 219.9477,
        "meta_mean_anomaly": 138.7449,
        "meta_ephemeris_type": 0,
        "meta_classification_type": "U",
        "meta_norad_cat_id": 33975,
        "meta_element_set_no": 999,
        "meta_rev_at_epoch": 85810,
        "meta_bstar": 0.0011796959,
        "meta_mean_motion_dot": 2.027e-05,
        "meta_mean_motion_ddot": 0,
        "tle_line1": "1 33975U 93036FJ  25345.37112866  .00002027  00000+0  11797-2 0  9998",
        "tle_line2": "2 33975  73.8024  86.8585 0191329 219.9477 138.7449 14.00521461858109"
      },
      "geometry": {
        "type": "Point",
        "coordinates": [
          100.79766076874348,
          45.524594673862886
        ]
      }
    },
    {
      "type": "Feature",
      "properties": {
        "norad_id": 33980,
        "name": "COSMOS 2251 DEB",
        "group": "cosmos-2251-debris",
        "lat": -10.724662553092838,
        "lon": 55.335780397310465,
        "alt_km": 718.137938142344,
        "timestamp": "2025-12-13T05:42:57.965342+00:00",
        "meta_object_name": "COSMOS 2251 DEB",
        "meta_object_id": "1993-036FP",
        "meta_epoch": "2025-12-12T07:01:27.070752",
        "meta_mean_motion": 14.58648508,
        "meta_eccentricity": 0.00287262,
        "meta_inclination": 74.0217,
        "meta_ra_of_asc_node": 60.2477,
        "meta_arg_of_pericenter": 205.6179,
        "meta_mean_anomaly": 220.2397,
        "meta_ephemeris_type": 0,
        "meta_classification_type": "U",
        "meta_norad_cat_id": 33980,
        "meta_element_set_no": 999,
        "meta_rev_at_epoch": 88788,
        "meta_bstar": 0.001142307,
        "meta_mean_motion_dot": 5.327e-05,
        "meta_mean_motion_ddot": 0,
        "tle_line1": "1 33980U 93036FP  25346.29267443  .00005327  00000+0  11423-2 0  9990",
        "tle_line2": "2 33980  74.0217  60.2477 0028726 205.6179 220.2397 14.58648508887880"
      },
      "geometry": {
        "type": "Point",
        "coordinates": [
          55.335780397310465,
          -10.724662553092838
        ]
      }
    },
    {
      "type": "Feature",
      "properties": {
        "norad_id": 33982,
        "name": "COSMOS 2251 DEB",
        "group": "cosmos-2251-debris",
        "lat": -25.50056169774705,
        "lon": -173.18329927315625,
        "alt_km": 748.5214589038778,
        "timestamp": "2025-12-13T05:42:57.965353+00:00",
        "meta_object_name": "COSMOS 2251 DEB",
        "meta_object_id": "1993-036FR",
        "meta_epoch": "2025-12-12T07:28:09.346656",
        "meta_mean_motion": 14.60208909,
        "meta_eccentricity": 0.00750464,
        "meta_inclination": 74.071,
        "meta_ra_of_asc_node": 0.7523,
        "meta_arg_of_pericenter": 45.3616,
        "meta_mean_anomaly": 330.1221,
        "meta_ephemeris_type": 0,
        "meta_classification_type": "U",
        "meta_norad_cat_id": 33982,
        "meta_element_set_no": 999,
        "meta_rev_at_epoch": 89153,
        "meta_bstar": 0.00061973576,
        "meta_mean_motion_dot": 3.079e-05,
        "meta_mean_motion_ddot": 0,
        "tle_line1": "1 33982U 93036FR  25346.31121929  .00003079  00000+0  61974-3 0  9992",
        "tle_line2": "2 33982  74.0710   0.7523 0075046  45.3616 330.1221 14.60208909891537"
      },
      "geometry": {
        "type": "Point",
        "coordinates": [
          -173.18329927315625,
          -25.50056169774705
        ]
      }
    },
    {
      "type": "Feature",
      "properties": {
        "norad_id": 33983,
        "name": "COSMOS 2251 DEB",
        "group": "cosmos-2251-debris",
        "lat": 55.58068294699682,
        "lon": -58.559975785180775,
        "alt_km": 727.1258973135346,
        "timestamp": "2025-12-13T05:42:57.965364+00:00",
        "meta_object_name": "COSMOS 2251 DEB",
        "meta_object_id": "1993-036FS",
        "meta_epoch": "2025-12-12T05:09:44.239968",
        "meta_mean_motion": 14.50667326,
        "meta_eccentricity": 0.00213465,
        "meta_inclination": 74.0493,
        "meta_ra_of_asc_node": 148.031,
        "meta_arg_of_pericenter": 251.0991,
        "meta_mean_anomaly": 289.2015,
        "meta_ephemeris_type": 0,
        "meta_classification_type": "U",
        "meta_norad_cat_id": 33983,
        "meta_element_set_no": 999,
        "meta_rev_at_epoch": 88621,
        "meta_bstar": 0.00089556918,
        "meta_mean_motion_dot": 3.501e-05,
        "meta_mean_motion_ddot": 0,
        "tle_line1": "1 33983U 93036FS  25346.21509537  .00003501  00000+0  89557-3 0  9994",
        "tle_line2": "2 33983  74.0493 148.0310 0021346 251.0991 289.2015 14.50667326886217"
      },
      "geometry": {
        "type": "Point",
        "coordinates": [
          -58.559975785180775,
          55.58068294699682
        ]
      }
    },
    {
      "type": "Feature",
      "properties": {
        "norad_id": 33984,
        "name": "COSMOS 2251 DEB",
        "group": "cosmos-2251-debris",
        "lat": -68.40199494475893,
        "lon": -147.44783935422512,
        "alt_km": 674.2348673071056,
        "timestamp": "2025-12-13T05:42:57.965387+00:00",
        "meta_object_name": "COSMOS 2251 DEB",
        "meta_object_id": "1993-036FT",
        "meta_epoch": "2025-12-12T07:20:25.667232",
        "meta_mean_motion": 14.66358555,
        "meta_eccentricity": 0.00231462,
        "meta_inclination": 74.01,
        "meta_ra_of_asc_node": 347.9396,
        "meta_arg_of_pericenter": 186.2933,
        "meta_mean_anomaly": 189.124,
        "meta_ephemeris_type": 0,
        "meta_classification_type": "U",
        "meta_norad_cat_id": 33984,
        "meta_element_set_no": 999,
        "meta_rev_at_epoch": 89060,
        "meta_bstar": 0.0013125413,
        "meta_mean_motion_dot": 7.256e-05,
        "meta_mean_motion_ddot": 0,
        "tle_line1": "1 33984U 93036FT  25346.30585263  .00007256  00000+0  13125-2 0  9993",
        "tle_line2": "2 33984  74.0100 347.9396 0023146 186.2933 189.1240 14.66358555890606"
      },
      "geometry": {
        "type": "Point",
        "coordinates": [
          -147.44783935422512,
          -68.40199494475893
        ]
      }
    }
  ]
}